[{"OBJECT_NAME":"STARLINK-35791","OBJECT_ID":"2025-283U","EPOCH":"2026-02-11T14:26:07.713024","MEAN_MOTION":15.3020821,"ECCENTRICITY":0.00011001,"INCLINATION":53.1608,"RA_OF_ASC_NODE":145.0782,"ARG_OF_PERICENTER":80.8409,"MEAN_ANOMALY":279.2716,"EPHEMERIS_TYPE":0,"CLASSIFICATION_TYPE":"U","NORAD_CAT_ID":66896,"ELEMENT_SET_NO":999,"REV_AT_EPOCH":1185,"BSTAR":0.0013561348,"MEAN_MOTION_DOT":0.00040032,"MEAN_MOTION_DDOT":0},{"OBJECT_NAME":"STARLINK-36079","OBJECT_ID":"2025-283V","EPOCH":"2026-02-11T13:52:51.450528","MEAN_MOTION":15.30195308,"ECCENTRICITY":9.599e-5,"INCLINATION":53.1588,"RA_OF_ASC_NODE":145.6459,"ARG_OF_PERICENTER":87.1722,"MEAN_ANOMALY":272.9388,"EPHEMERIS_TYPE":0,"CLASSIFICATION_TYPE":"U","NORAD_CAT_ID":66897,"ELEMENT_SET_NO":999,"REV_AT_EPOCH":1183,"BSTAR":0.00081980415,"MEAN_MOTION_DOT":0.00023996,"MEAN_MOTION_DDOT":0},{"OBJECT_NAME":"STARLINK-36065","OBJECT_ID":"2025-283W","EPOCH":"2026-02-11T13:49:48.303264","MEAN_MOTION":15.30219551,"ECCENTRICITY":0.00040444,"INCLINATION":53.1596,"RA_OF_ASC_NODE":145.6345,"ARG_OF_PERICENTER":181.8358,"MEAN_ANOMALY":178.2629,"EPHEMERIS_TYPE":0,"CLASSIFICATION_TYPE":"U","NORAD_CAT_ID":66898,"ELEMENT_SET_NO":999,"REV_AT_EPOCH":1184,"BSTAR":0.00096008069,"MEAN_MOTION_DOT":0.00028205,"MEAN_MOTION_DDOT":0},{"OBJECT_NAME":"STARLINK-36064","OBJECT_ID":"2025-283X","EPOCH":"2026-02-11T12:12:43.739712","MEAN_MOTION":15.30204363,"ECCENTRICITY":0.00011824,"INCLINATION":53.1592,"RA_OF_ASC_NODE":145.9243,"ARG_OF_PERICENTER":90.899,"MEAN_ANOMALY":269.2147,"EPHEMERIS_TYPE":0,"CLASSIFICATION_TYPE":"U","NORAD_CAT_ID":66899,"ELEMENT_SET_NO":999,"REV_AT_EPOCH":1183,"BSTAR":0.0013618607,"MEAN_MOTION_DOT":0.00040199,"MEAN_MOTION_DDOT":0},{"OBJECT_NAME":"STARLINK-36074","OBJECT_ID":"2025-283Y","EPOCH":"2026-02-11T13:42:13.609440","MEAN_MOTION":15.30221837,"ECCENTRICITY":0.00018975,"INCLINATION":53.1594,"RA_OF_ASC_NODE":145.6003,"ARG_OF_PERICENTER":44.0797,"MEAN_ANOMALY":316.0354,"EPHEMERIS_TYPE":0,"CLASSIFICATION_TYPE":"U","NORAD_CAT_ID":66900,"ELEMENT_SET_NO":999,"REV_AT_EPOCH":1184,"BSTAR":0.00092162365,"MEAN_MOTION_DOT":0.00027055,"MEAN_MOTION_DDOT":0},{"OBJECT_NAME":"STARLINK-36043","OBJECT_ID":"2025-283Z","EPOCH":"2026-02-11T13:33:06.526368","MEAN_MOTION":15.30210178,"ECCENTRICITY":0.00021824,"INCLINATION":53.1591,"RA_OF_ASC_NODE":145.5582,"ARG_OF_PERICENTER":30.6479,"MEAN_ANOMALY":329.4649,"EPHEMERIS_TYPE":0,"CLASSIFICATION_TYPE":"U","NORAD_CAT_ID":66901,"ELEMENT_SET_NO":999,"REV_AT_EPOCH":1184,"BSTAR":0.0012062767,"MEAN_MOTION_DOT":0.0003555,"MEAN_MOTION_DDOT":0},{"OBJECT_NAME":"STARLINK-35983","OBJECT_ID":"2025-283AA","EPOCH":"2026-02-11T13:28:32.831904","MEAN_MOTION":15.30198884,"ECCENTRICITY":0.00013217,"INCLINATION":53.1588,"RA_OF_ASC_NODE":145.5372,"ARG_OF_PERICENTER":62.3773,"MEAN_ANOMALY":297.7362,"EPHEMERIS_TYPE":0,"CLASSIFICATION_TYPE":"U","NORAD_CAT_ID":66902,"ELEMENT_SET_NO":999,"REV_AT_EPOCH":1184,"BSTAR":0.0011074616,"MEAN_MOTION_DOT":0.00032583,"MEAN_MOTION_DDOT":0},{"OBJECT_NAME":"STARLINK-36077","OBJECT_ID":"2025-283AB","EPOCH":"2026-02-11T13:23:59.273952","MEAN_MOTION":15.3020148,"ECCENTRICITY":0.00012973,"INCLINATION":53.159,"RA_OF_ASC_NODE":145.5155,"ARG_OF_PERICENTER":61.0407,"MEAN_ANOMALY":299.0723,"EPHEMERIS_TYPE":0,"CLASSIFICATION_TYPE":"U","NORAD_CAT_ID":66903,"ELEMENT_SET_NO":999,"REV_AT_EPOCH":1184,"BSTAR":0.0011836059,"MEAN_MOTION_DOT":0.00034862,"MEAN_MOTION_DDOT":0},{"OBJECT_NAME":"STARLINK-36059","OBJECT_ID":"2025-283AC","EPOCH":"2026-02-11T13:19:25.732416","MEAN_MOTION":15.30220254,"ECCENTRICITY":0.00011678,"INCLINATION":53.1591,"RA_OF_ASC_NODE":145.4926,"ARG_OF_PERICENTER":81.9199,"MEAN_ANOMALY":278.1934,"EPHEMERIS_TYPE":0,"CLASSIFICATION_TYPE":"U","NORAD_CAT_ID":66904,"ELEMENT_SET_NO":999,"REV_AT_EPOCH":1184,"BSTAR":0.0010209121,"MEAN_MOTION_DOT":0.00030018,"MEAN_MOTION_DDOT":0},{"OBJECT_NAME":"STARLINK-36075","OBJECT_ID":"2025-283AD","EPOCH":"2026-02-11T14:15:39.286944","MEAN_MOTION":15.30198494,"ECCENTRICITY":0.00011193,"INCLINATION":53.1602,"RA_OF_ASC_NODE":145.7421,"ARG_OF_PERICENTER":84.7316,"MEAN_ANOMALY":275.3812,"EPHEMERIS_TYPE":0,"CLASSIFICATION_TYPE":"U","NORAD_CAT_ID":66905,"ELEMENT_SET_NO":999,"REV_AT_EPOCH":1184,"BSTAR":0.0010724414,"MEAN_MOTION_DOT":0.00031537,"MEAN_MOTION_DDOT":0},{"OBJECT_NAME":"STARLINK-35945","OBJECT_ID":"2025-286A","EPOCH":"2026-02-11T11:40:45.364224","MEAN_MOTION":15.30239829,"ECCENTRICITY":0.00018198,"INCLINATION":53.1591,"RA_OF_ASC_NODE":120.2503,"ARG_OF_PERICENTER":59.2306,"MEAN_ANOMALY":300.8874,"EPHEMERIS_TYPE":0,"CLASSIFICATION_TYPE":"U","NORAD_CAT_ID":66925,"ELEMENT_SET_NO":999,"REV_AT_EPOCH":1140,"BSTAR":0.0016698025,"MEAN_MOTION_DOT":0.00049487,"MEAN_MOTION_DDOT":0},{"OBJECT_NAME":"STARLINK-35942","OBJECT_ID":"2025-286B","EPOCH":"2026-02-11T19:21:06.818688","MEAN_MOTION":15.39649878,"ECCENTRICITY":0.0001509,"INCLINATION":53.1599,"RA_OF_ASC_NODE":118.6973,"ARG_OF_PERICENTER":54.5388,"MEAN_ANOMALY":305.5758,"EPHEMERIS_TYPE":0,"CLASSIFICATION_TYPE":"U","NORAD_CAT_ID":66926,"ELEMENT_SET_NO":999,"REV_AT_EPOCH":1145,"BSTAR":0.0012585292,"MEAN_MOTION_DOT":0.00050323,"MEAN_MOTION_DDOT":0},{"OBJECT_NAME":"STARLINK-35943","OBJECT_ID":"2025-286C","EPOCH":"2026-02-11T11:34:40.437408","MEAN_MOTION":15.30201729,"ECCENTRICITY":0.00012592,"INCLINATION":53.1622,"RA_OF_ASC_NODE":120.2253,"ARG_OF_PERICENTER":93.0907,"MEAN_ANOMALY":267.0238,"EPHEMERIS_TYPE":0,"CLASSIFICATION_TYPE":"U","NORAD_CAT_ID":66927,"ELEMENT_SET_NO":999,"REV_AT_EPOCH":1140,"BSTAR":0.00095491772,"MEAN_MOTION_DOT":0.00028031,"MEAN_MOTION_DDOT":0},{"OBJECT_NAME":"STARLINK-35944","OBJECT_ID":"2025-286D","EPOCH":"2026-02-11T12:02:01.679712","MEAN_MOTION":15.30188968,"ECCENTRICITY":0.00014275,"INCLINATION":53.1577,"RA_OF_ASC_NODE":120.3466,"ARG_OF_PERICENTER":84.9252,"MEAN_ANOMALY":275.1911,"EPHEMERIS_TYPE":0,"CLASSIFICATION_TYPE":"U","NORAD_CAT_ID":66928,"ELEMENT_SET_NO":999,"REV_AT_EPOCH":1140,"BSTAR":0.0015442672,"MEAN_MOTION_DOT":0.00045643,"MEAN_MOTION_DDOT":0},{"OBJECT_NAME":"STARLINK-36169","OBJECT_ID":"2025-286E","EPOCH":"2026-02-11T12:53:49.843680","MEAN_MOTION":15.39635536,"ECCENTRICITY":0.00012783,"INCLINATION":53.16,"RA_OF_ASC_NODE":119.8623,"ARG_OF_PERICENTER":75.1958,"MEAN_ANOMALY":284.9189,"EPHEMERIS_TYPE":0,"CLASSIFICATION_TYPE":"U","NORAD_CAT_ID":66929,"ELEMENT_SET_NO":999,"REV_AT_EPOCH":1141,"BSTAR":0.00099873396,"MEAN_MOTION_DOT":0.00039778,"MEAN_MOTION_DDOT":0},{"OBJECT_NAME":"STARLINK-36206","OBJECT_ID":"2025-286F","EPOCH":"2026-02-11T12:03:14.198688","MEAN_MOTION":15.30632757,"ECCENTRICITY":0.00030586,"INCLINATION":53.1589,"RA_OF_ASC_NODE":120.3514,"ARG_OF_PERICENTER":86.8777,"MEAN_ANOMALY":273.2574,"EPHEMERIS_TYPE":0,"CLASSIFICATION_TYPE":"U","NORAD_CAT_ID":66930,"ELEMENT_SET_NO":999,"REV_AT_EPOCH":1139,"BSTAR":0.0017441702,"MEAN_MOTION_DOT":0.00052367,"MEAN_MOTION_DDOT":0},{"OBJECT_NAME":"STARLINK-36130","OBJECT_ID":"2025-286G","EPOCH":"2026-02-11T11:40:24.927168","MEAN_MOTION":15.39628424,"ECCENTRICITY":0.00010483,"INCLINATION":53.1591,"RA_OF_ASC_NODE":120.255,"ARG_OF_PERICENTER":69.1442,"MEAN_ANOMALY":290.9675,"EPHEMERIS_TYPE":0,"CLASSIFICATION_TYPE":"U","NORAD_CAT_ID":66931,"ELEMENT_SET_NO":999,"REV_AT_EPOCH":1140,"BSTAR":0.00097672469,"MEAN_MOTION_DOT":0.00038879,"MEAN_MOTION_DDOT":0},{"OBJECT_NAME":"STARLINK-36177","OBJECT_ID":"2025-286H","EPOCH":"2026-02-11T12:17:13.365600","MEAN_MOTION":15.30202626,"ECCENTRICITY":0.00010868,"INCLINATION":53.1592,"RA_OF_ASC_NODE":120.4116,"ARG_OF_PERICENTER":91.8968,"MEAN_ANOMALY":268.2157,"EPHEMERIS_TYPE":0,"CLASSIFICATION_TYPE":"U","NORAD_CAT_ID":66932,"ELEMENT_SET_NO":999,"REV_AT_EPOCH":1140,"BSTAR":0.0016932032,"MEAN_MOTION_DOT":0.00050131,"MEAN_MOTION_DDOT":0},{"OBJECT_NAME":"STARLINK-36157","OBJECT_ID":"2025-286J","EPOCH":"2026-02-11T11:43:47.303616","MEAN_MOTION":15.30220653,"ECCENTRICITY":0.00015963,"INCLINATION":53.1606,"RA_OF_ASC_NODE":120.2636,"ARG_OF_PERICENTER":331.089,"MEAN_ANOMALY":29.0022,"EPHEMERIS_TYPE":0,"CLASSIFICATION_TYPE":"U","NORAD_CAT_ID":66933,"ELEMENT_SET_NO":999,"REV_AT_EPOCH":1140,"BSTAR":0.001526487,"MEAN_MOTION_DOT":0.00045155,"MEAN_MOTION_DDOT":0},{"OBJECT_NAME":"STARLINK-36153","OBJECT_ID":"2025-286K","EPOCH":"2026-02-10T16:45:19.176768","MEAN_MOTION":15.39637067,"ECCENTRICITY":0.00012845,"INCLINATION":53.1584,"RA_OF_ASC_NODE":123.8644,"ARG_OF_PERICENTER":93.0983,"MEAN_ANOMALY":267.0168,"EPHEMERIS_TYPE":0,"CLASSIFICATION_TYPE":"U","NORAD_CAT_ID":66934,"ELEMENT_SET_NO":999,"REV_AT_EPOCH":1128,"BSTAR":0.0014541387,"MEAN_MOTION_DOT":0.00058243,"MEAN_MOTION_DDOT":0},{"OBJECT_NAME":"STARLINK-36127","OBJECT_ID":"2025-286L","EPOCH":"2026-02-11T11:47:05.563968","MEAN_MOTION":15.3967757,"ECCENTRICITY":0.00024503,"INCLINATION":53.1593,"RA_OF_ASC_NODE":120.282,"ARG_OF_PERICENTER":166.7048,"MEAN_ANOMALY":193.4022,"EPHEMERIS_TYPE":0,"CLASSIFICATION_TYPE":"U","NORAD_CAT_ID":66935,"ELEMENT_SET_NO":999,"REV_AT_EPOCH":1140,"BSTAR":0.0016459738,"MEAN_MOTION_DOT":0.0006614,"MEAN_MOTION_DDOT":0},{"OBJECT_NAME":"STARLINK-36160","OBJECT_ID":"2025-286M","EPOCH":"2026-02-11T11:52:54.359904","MEAN_MOTION":15.30201677,"ECCENTRICITY":0.0001073,"INCLINATION":53.1593,"RA_OF_ASC_NODE":120.3029,"ARG_OF_PERICENTER":80.6741,"MEAN_ANOMALY":279.4381,"EPHEMERIS_TYPE":0,"CLASSIFICATION_TYPE":"U","NORAD_CAT_ID":66936,"ELEMENT_SET_NO":999,"REV_AT_EPOCH":1139,"BSTAR":0.0013053416,"MEAN_MOTION_DOT":0.00038504,"MEAN_MOTION_DDOT":0},{"OBJECT_NAME":"STARLINK-36165","OBJECT_ID":"2025-286N","EPOCH":"2026-02-11T12:14:10.633056","MEAN_MOTION":15.30228853,"ECCENTRICITY":0.00018485,"INCLINATION":53.1598,"RA_OF_ASC_NODE":120.3979,"ARG_OF_PERICENTER":154.1892,"MEAN_ANOMALY":205.9202,"EPHEMERIS_TYPE":0,"CLASSIFICATION_TYPE":"U","NORAD_CAT_ID":66937,"ELEMENT_SET_NO":999,"REV_AT_EPOCH":1140,"BSTAR":0.0013671357,"MEAN_MOTION_DOT":0.00040389,"MEAN_MOTION_DDOT":0}]
